TSIOLKOVSKY-RYAZAN 2 (*)
1 53313U 98067TY  23013.00022738  .00545733  00000+0  17985-2 0  9994
2 53313  51.6305   1.5886 0006403  72.3615 287.8088 15.88522914 27467
YUZGU 10 (RS4S)         
1 53321U 98067TZ  23012.96033639  .00523330  00000+0  18059-2 0  9991
2 53321  51.6326   2.0748 0005846  69.5227 290.6405 15.87648958 27459
YUZGU UA                
1 53322U 98067UA  23012.98493995  .00530534  11802-3  17571-2 0  9997
2 53322  51.6312   1.4776 0006173  73.2900 286.8783 15.89762336 27414
HSU-SAT1                
1 53462U 98067UB  23012.23616914  .00152937  00000+0  12387-2 0  9999
2 53462  51.6351  11.5342 0006766  10.6099 349.5040 15.69752870 23841
FUTABA                  
1 53463U 98067UC  23012.68823134  .00243242  00000+0  14718-2 0  9993
2 53463  51.6328   7.0259 0006827  28.7060 331.4315 15.76297927 23940
TUMNANOSAT              
1 53464U 98067UD  23012.67248855  .00437835  00000+0  17307-2 0  9994
2 53464  51.6314   4.6470 0007008  49.2387 310.9224 15.85051508 23973
D3                      
1 53767U 98067UE  23012.00021290  .00098845  00000+0  10343-2 0  9996
2 53767  51.6376  15.9926 0005445  23.8830 336.2416 15.63625500 19886
BEAVERCUBE              
1 53768U 98067UF  23012.26534660  .00089970  00000+0  95329-3 0  9992
2 53768  51.6389  14.7577 0003787  25.7405 334.3777 15.63356249 19932
CLICK-A                 
1 53769U 98067UG  23011.99982455  .00205318  00000+0  15972-2 0  9992
2 53769  51.6450  13.7860 0004686  31.2817 328.8459 15.70562215 19928
CAPSAT 1                
1 53770U 98067UH  23013.00209186  .00527212  00000+0  20040-2 0  9993
2 53770  51.6322   4.6243 0007470  64.4274 295.7501 15.85644704 20136
JAGSAT 1                
1 53771U 98067UJ  23012.38933997  .00727840  22545-3  21841-2 0  9999
2 53771  51.6288   6.5055 0008069  68.4893 291.6973 15.91656187 20049
ISS DEB                 
1 53772U 98067UK  23011.25713607  .00179292  00000+0  14172-2 0  9998
2 53772  51.6348  17.7554 0004871  11.9734 348.1378 15.70262671 19794
SOYUZ-MS 22             
1 53879U 22116A   23011.52688837  .00013386  00000+0  24115-3 0  9994
2 53879  51.6439  24.5314 0004710 251.3875 245.7186 15.50109801377497
CREW DRAGON 5           
1 53963U 22124A   23011.52688837  .00013386  00000+0  24115-3 0  9997
2 53963  51.6439  24.5314 0004710 251.3875 245.7186 15.50109801377491
PROGRESS-MS 21          
1 54155U 22140A   23011.52688837  .00013386  00000+0  24115-3 0  9999
2 54155  51.6439  24.5314 0004710 251.3875 245.7186 15.50109801377495
CSS (MENGTIAN)          
1 54216U 22143A   23011.53776986  .00020745  00000+0  24890-3 0  9991
2 54216  41.4767  30.7243 0005432 311.8421 193.5178 15.60394222 97332
CYGNUS NG-18            
1 54232U 22149A   23011.52688837  .00013386  00000+0  24115-3 0  9994
2 54232  51.6439  24.5314 0004710 251.3875 245.7186 15.50109801377491
TIANZHOU-5              
1 54237U 22152A   23011.53776986  .00020745  00000+0  24890-3 0  9994
2 54237  41.4767  30.7243 0005432 311.8421 193.5178 15.60394222 97335
SHENZHOU-15             
1 54379U 22162A   23011.53776986  .00020745  00000+0  24890-3 0  9992
2 54379  41.4767  30.7243 0005432 311.8421 193.5178 15.60394222 97332
1998-067UL              
1 54534U 98067UL  23012.72753438  .00067440  00000+0  10052-2 0  9998
2 54534  51.6414  17.8434 0002855 296.9618  63.1081 15.54456385  6485
1998-067UM              
1 54535U 98067UM  23012.92822321  .00073862  00000+0  10756-2 0  9995
2 54535  51.6438  16.7564 0001823 290.0111 152.0495 15.55055914  6516
1998-067UN              
1 54536U 98067UN  23012.93963813  .00057062  00000+0  86394-3 0  9995
2 54536  51.6441  16.8280 0003030 289.5456 154.8085 15.54097485  6472
1998-067UP              
1 54537U 98067UP  23012.98776197  .00063934  00000+0  95119-3 0  9998
2 54537  51.6450  16.5258 0002510 287.3718  97.2108 15.54530249  6526
XW-4 (CAS-10)           
1 54816U 21035C   23012.93559035  .00150118  00000+0  13972-2 0  9991
2 54816  41.4781  21.5367 0005974  32.5841 327.5410 15.66088840  3925
MARIO                   
1 55123U 98067UQ  23012.58583087  .00071345  00000+0  11520-2 0  9998
2 55123  51.6420  19.1459 0002227 320.2140  39.8686 15.52221781  2264
NUTSAT                  
1 55124U 98067UR  23012.71368506  .00100916  00000+0  15947-2 0  9995
2 55124  51.6418  18.5007 0001769 322.1646  37.9219 15.52664854  2270
LORIS                   
1 55125U 98067US  23012.71595401  .00059203  00000+0  96822-3 0  9996
2 55125  51.6422  18.5153 0003045 311.9950  48.0780 15.51943908  2298
ORCASAT                 
1 55126U 98067UT  23012.26594204  .00055601  00000+0  91729-3 0  9996
2 55126  51.6424  20.7593 0003223 308.0752  51.9946 15.51726071  2229
DANTESAT                
1 55127U 98067UU  23013.04795354  .00640666  00000+0  58359-2 0  9995
2 55127  51.6393  16.2300 0006381 109.8561 250.3123 15.65327609  2315
TJREVERB                
1 55128U 98067UV  23012.26759574  .00061544  00000+0  10181-2 0  9996
2 55128  51.6424  20.7698 0004017 285.7191  74.3355 15.51603839  2215
SPORT                   
1 55129U 98067UW  23012.72113232  .00034816  00000+0  59278-3 0  9996
2 55129  51.6430  18.5488 0002224 273.8639  86.2096 15.51055842  2284
PETITSAT                
1 55130U 98067UX  23012.72125745  .00096210  00000+0  15981-2 0  9998
2 55130  51.6421  18.5501 0001956 268.0738  92.0027 15.51295191  2236
1998-067UY              
1 55181U 98067UY  23012.72397621  .00068831  00000+0  11503-2 0  9992
2 55181  51.6422  18.5677 0003334 219.8394 140.2351 15.51272470   993
HSKSAT                  
1 55182U 98067UZ  23012.16504302  .00049773  00000+0  83753-3 0  9998
2 55182  51.6442  21.3282 0002889 200.2052 279.2239 15.51220918   919
1998-067VA              
1 55183U 98067VA  23012.16513809  .00042545  00000+0  71933-3 0  9998
2 55183  51.6448  21.3326 0005062 293.7831 185.5680 15.51148609   918
DRAGON CRS-26 DEB       
1 55241U 22159B   23012.90396861  .00941561  11214-4  11231-2 0  9995
2 55241  51.6380  16.7545 0109811 164.2115 196.2412 15.96560378   252
